0 METEOR 2-6 DEB
1 31406U 80073H   13274.35032289  .00003440  00000-0  17195-2 0  4251
2 31406 081.2200 293.3542 0040271 289.5435 070.1392 14.16177139355327
0 METEOR 2-6 DEB
1 31406U 80073H   13274.35040316  .00002316  00000-0  11536-2 0  4266
2 31406 081.2060 293.3165 0044949 292.6464 067.3840 14.16177767355328
0 METEOR 2-6 DEB
1 31406U 80073H   13275.33945406  .00002335  00000-0  11649-2 0  4276
2 31406 081.2164 292.3708 0041571 289.8670 069.7948 14.16182597355467
0 METEOR 2-6 DEB
1 31406U 80073H   13279.71983990  .00002543  00000-0  12707-2 0  4280
2 31406 081.2172 288.0542 0036825 272.0997 087.6765 14.16207221356083
0 METEOR 2-6 DEB
1 31406U 80073H   13287.27935348  .00002914  00000-0  14541-2 0  4295
2 31406 081.2194 280.5964 0039452 251.6821 108.2174 14.16254845357157
